{
  "type": "FeatureCollection",
  "features": [
    {
      "type": "Feature",
      "properties": {
        "norad_id": 43207,
        "name": "BEIDOU-3 M4 (C22)",
        "group": "beidou",
        "lat": 38.62057104878508,
        "lon": 100.90001638831306,
        "alt_km": 21515.12777297022,
        "timestamp": "2025-12-22T14:45:57.667885+00:00",
        "meta_object_name": "BEIDOU-3 M4 (C22)",
        "meta_object_id": "2018-018A",
        "meta_epoch": "2025-12-20T09:29:07.105632",
        "meta_mean_motion": 1.86231247,
        "meta_eccentricity": 0.0004167,
        "meta_inclination": 56.4917,
        "meta_ra_of_asc_node": 69.0512,
        "meta_arg_of_pericenter": 3.4046,
        "meta_mean_anomaly": 356.639,
        "meta_ephemeris_type": 0,
        "meta_classification_type": "U",
        "meta_norad_cat_id": 43207,
        "meta_element_set_no": 999,
        "meta_rev_at_epoch": 5341,
        "meta_bstar": 0,
        "meta_mean_motion_dot": -4.3e-07,
        "meta_mean_motion_ddot": 0,
        "tle_line1": "1 43207U 18018A   25354.39522113 -.00000043  00000+0  00000+0 0  9995",
        "tle_line2": "2 43207  56.4917  69.0512 0004167   3.4046 356.6390  1.86231247 53417"
      },
      "geometry": {
        "type": "Point",
        "coordinates": [
          100.90001638831306,
          38.62057104878508
        ]
      }
    },
    {
      "type": "Feature",
      "properties": {
        "norad_id": 43208,
        "name": "BEIDOU-3 M3 (C21)",
        "group": "beidou",
        "lat": 3.184468620310923,
        "lon": 71.11042606111018,
        "alt_km": 21515.31105958268,
        "timestamp": "2025-12-22T14:45:57.667896+00:00",
        "meta_object_name": "BEIDOU-3 M3 (C21)",
        "meta_object_id": "2018-018B",
        "meta_epoch": "2025-12-22T01:44:32.904384",
        "meta_mean_motion": 1.86231411,
        "meta_eccentricity": 0.00070212,
        "meta_inclination": 56.4927,
        "meta_ra_of_asc_node": 68.9999,
        "meta_arg_of_pericenter": 313.8798,
        "meta_mean_anomaly": 46.1114,
        "meta_ephemeris_type": 0,
        "meta_classification_type": "U",
        "meta_norad_cat_id": 43208,
        "meta_element_set_no": 999,
        "meta_rev_at_epoch": 5344,
        "meta_bstar": 0,
        "meta_mean_motion_dot": -3e-07,
        "meta_mean_motion_ddot": 0,
        "tle_line1": "1 43208U 18018B   25356.07260306 -.00000030  00000+0  00000+0 0  9992",
        "tle_line2": "2 43208  56.4927  68.9999 0007021 313.8798  46.1114  1.86231411 53441"
      },
      "geometry": {
        "type": "Point",
        "coordinates": [
          71.11042606111018,
          3.184468620310923
        ]
      }
    },
    {
      "type": "Feature",
      "properties": {
        "norad_id": 43245,
        "name": "BEIDOU-3 M9 (C29)",
        "group": "beidou",
        "lat": -30.640916956184167,
        "lon": 151.22623585431413,
        "alt_km": 21530.834183218398,
        "timestamp": "2025-12-22T14:45:57.667907+00:00",
        "meta_object_name": "BEIDOU-3 M9 (C29)",
        "meta_object_id": "2018-029A",
        "meta_epoch": "2025-12-21T18:02:44.382048",
        "meta_mean_motion": 1.8622836,
        "meta_eccentricity": 0.00015407,
        "meta_inclination": 54.3576,
        "meta_ra_of_asc_node": 306.1541,
        "meta_arg_of_pericenter": 290.4225,
        "meta_mean_anomaly": 69.56,
        "meta_ephemeris_type": 0,
        "meta_classification_type": "U",
        "meta_norad_cat_id": 43245,
        "meta_element_set_no": 999,
        "meta_rev_at_epoch": 5259,
        "meta_bstar": 0,
        "meta_mean_motion_dot": -5.9e-07,
        "meta_mean_motion_ddot": 0,
        "tle_line1": "1 43245U 18029A   25355.75190257 -.00000059  00000+0  00000+0 0  9997",
        "tle_line2": "2 43245  54.3576 306.1541 0001540 290.4225  69.5600  1.86228360 52597"
      },
      "geometry": {
        "type": "Point",
        "coordinates": [
          151.22623585431413,
          -30.640916956184167
        ]
      }
    },
    {
      "type": "Feature",
      "properties": {
        "norad_id": 43246,
        "name": "BEIDOU-3 M10 (C30)",
        "group": "beidou",
        "lat": -53.641455225487405,
        "lon": -157.03192458719033,
        "alt_km": 21536.275136110784,
        "timestamp": "2025-12-22T14:45:57.667918+00:00",
        "meta_object_name": "BEIDOU-3 M10 (C30)",
        "meta_object_id": "2018-029B",
        "meta_epoch": "2025-12-21T16:29:26.843136",
        "meta_mean_motion": 1.8622925,
        "meta_eccentricity": 0.00042885,
        "meta_inclination": 54.3548,
        "meta_ra_of_asc_node": 306.183,
        "meta_arg_of_pericenter": 3.3275,
        "meta_mean_anomaly": 356.674,
        "meta_ephemeris_type": 0,
        "meta_classification_type": "U",
        "meta_norad_cat_id": 43246,
        "meta_element_set_no": 999,
        "meta_rev_at_epoch": 5257,
        "meta_bstar": 0,
        "meta_mean_motion_dot": -6e-07,
        "meta_mean_motion_ddot": 0,
        "tle_line1": "1 43246U 18029B   25355.68711624 -.00000060  00000+0  00000+0 0  9999",
        "tle_line2": "2 43246  54.3548 306.1830 0004288   3.3275 356.6740  1.86229250 52578"
      },
      "geometry": {
        "type": "Point",
        "coordinates": [
          -157.03192458719033,
          -53.641455225487405
        ]
      }
    },
    {
      "type": "Feature",
      "properties": {
        "norad_id": 43539,
        "name": "BEIDOU-2 IGSO-7 (C16)",
        "group": "beidou",
        "lat": -53.661681124563565,
        "lon": 55.92474625509981,
        "alt_km": 35439.115225029156,
        "timestamp": "2025-12-22T14:45:57.667930+00:00",
        "meta_object_name": "BEIDOU-2 IGSO-7 (C16)",
        "meta_object_id": "2018-057A",
        "meta_epoch": "2025-12-15T07:47:07.120608",
        "meta_mean_motion": 1.00256546,
        "meta_eccentricity": 0.00926218,
        "meta_inclination": 55.1766,
        "meta_ra_of_asc_node": 164.6485,
        "meta_arg_of_pericenter": 235.2644,
        "meta_mean_anomaly": 271.8458,
        "meta_ephemeris_type": 0,
        "meta_classification_type": "U",
        "meta_norad_cat_id": 43539,
        "meta_element_set_no": 999,
        "meta_rev_at_epoch": 2728,
        "meta_bstar": 0,
        "meta_mean_motion_dot": -2.3e-07,
        "meta_mean_motion_ddot": 0,
        "tle_line1": "1 43539U 18057A   25349.32438797 -.00000023  00000+0  00000+0 0  9995",
        "tle_line2": "2 43539  55.1766 164.6485 0092621 235.2644 271.8458  1.00256546 27289"
      },
      "geometry": {
        "type": "Point",
        "coordinates": [
          55.92474625509981,
          -53.661681124563565
        ]
      }
    },
    {
      "type": "Feature",
      "properties": {
        "norad_id": 43581,
        "name": "BEIDOU-3 M5 (C23)",
        "group": "beidou",
        "lat": 48.76702946881434,
        "lon": -47.507717586092035,
        "alt_km": 21524.293613259062,
        "timestamp": "2025-12-22T14:45:57.667942+00:00",
        "meta_object_name": "BEIDOU-3 M5 (C23)",
        "meta_object_id": "2018-062A",
        "meta_epoch": "2025-12-20T20:06:28.321920",
        "meta_mean_motion": 1.86228978,
        "meta_eccentricity": 0.00019384,
        "meta_inclination": 54.0899,
        "meta_ra_of_asc_node": 188.3678,
        "meta_arg_of_pericenter": 1.5281,
        "meta_mean_anomaly": 358.5256,
        "meta_ephemeris_type": 0,
        "meta_classification_type": "U",
        "meta_norad_cat_id": 43581,
        "meta_element_set_no": 999,
        "meta_rev_at_epoch": 5031,
        "meta_bstar": 0,
        "meta_mean_motion_dot": 9.5e-07,
        "meta_mean_motion_ddot": 0,
        "tle_line1": "1 43581U 18062A   25354.83782780  .00000095  00000+0  00000+0 0  9992",
        "tle_line2": "2 43581  54.0899 188.3678 0001938   1.5281 358.5256  1.86228978 50311"
      },
      "geometry": {
        "type": "Point",
        "coordinates": [
          -47.507717586092035,
          48.76702946881434
        ]
      }
    },
    {
      "type": "Feature",
      "properties": {
        "norad_id": 43582,
        "name": "BEIDOU-3 M6 (C24)",
        "group": "beidou",
        "lat": -18.965615731680646,
        "lon": 22.729524162635105,
        "alt_km": 21550.658964589,
        "timestamp": "2025-12-22T14:45:57.667954+00:00",
        "meta_object_name": "BEIDOU-3 M6 (C24)",
        "meta_object_id": "2018-062B",
        "meta_epoch": "2025-12-21T18:35:38.750784",
        "meta_mean_motion": 1.86229861,
        "meta_eccentricity": 0.00078414,
        "meta_inclination": 54.0893,
        "meta_ra_of_asc_node": 188.325,
        "meta_arg_of_pericenter": 48.2349,
        "meta_mean_anomaly": 311.8795,
        "meta_ephemeris_type": 0,
        "meta_classification_type": "U",
        "meta_norad_cat_id": 43582,
        "meta_element_set_no": 999,
        "meta_rev_at_epoch": 5033,
        "meta_bstar": 0,
        "meta_mean_motion_dot": 9.4e-07,
        "meta_mean_motion_ddot": 0,
        "tle_line1": "1 43582U 18062B   25355.77475406  .00000094  00000+0  00000+0 0  9990",
        "tle_line2": "2 43582  54.0893 188.3250 0007841  48.2349 311.8795  1.86229861 50338"
      },
      "geometry": {
        "type": "Point",
        "coordinates": [
          22.729524162635105,
          -18.965615731680646
        ]
      }
    }
  ]
}